OBJECT_NAME,OBJECT_ID,EPOCH,MEAN_MOTION,ECCENTRICITY,INCLINATION,RA_OF_ASC_NODE,ARG_OF_PERICENTER,MEAN_ANOMALY,EPHEMERIS_TYPE,CLASSIFICATION_TYPE,NORAD_CAT_ID,ELEMENT_SET_NO,REV_AT_EPOCH,BSTAR,MEAN_MOTION_DOT,MEAN_MOTION_DDOT
PROBA-1,2001-049B,2026-06-16T20:54:28.484928,15.07492899,.0056446,97.9595,176.3922,122.8667,237.8011,0,U,26958,999,34357,.77829E-4,.1152E-4,0
CUTE-1 (CO-55),2003-031E,2026-06-16T19:50:03.732576,14.24335514,.0009511,98.6736,176.3898,179.0123,181.1076,0,U,27844,999,19162,.11849E-3,.23E-5,0
CUBESAT XI-IV (CO-57),2003-031J,2026-06-16T17:51:58.360608,14.23620607,.0008995,98.6766,176.0218,198.3693,161.7162,0,U,27848,999,19131,.10473E-3,.195E-5,0
APRIZESAT 4,2009-041D,2026-06-16T17:13:19.958304,14.83878811,.0042436,98.1413,243.0288,324.6081,35.2317,0,U,35684,999,91129,.72963E-4,.555E-5,0
APRIZESAT 3,2009-041F,2026-06-16T10:19:31.281024,14.96239329,.00627766,98.2059,320.6177,70.1926,290.6047,0,U,35686,999,91626,.1360139E-3,.1528E-4,0
PROBA-2,2009-059B,2026-06-16T18:13:01.432704,14.54862281,.0011974,98.2449,351.1177,283.6370,76.3493,0,U,36037,999,88146,.43007E-4,.139E-5,0
APRIZESAT 5,2011-044E,2026-06-16T17:41:17.244096,14.81075197,.0052379,98.2453,100.7646,5.7788,354.4017,0,U,37792,999,79872,.12528E-3,.935E-5,0
APRIZESAT 6,2011-044F,2026-06-16T17:44:28.695264,14.76915295,.0044499,98.2364,78.2297,87.4280,328.0393,0,U,37793,999,79708,.94864E-4,.622E-5,0
PROBA-V,2013-021A,2026-06-16T16:44:19.425120,14.23596844,.0005117,98.3584,146.3283,124.6070,235.5592,0,U,39159,999,68104,.35436E-4,.4E-6,0
APRIZESAT 7,2013-066A,2026-06-16T14:48:52.642944,14.91562845,.0034954,97.7709,120.8454,211.2066,148.7077,0,U,39416,999,68114,.10935E-3,.1051E-4,0
APRIZESAT 8,2013-066K,2026-06-16T17:42:32.965056,14.87651979,.0044448,97.8220,115.2119,288.1032,71.5346,0,U,39425,999,67960,.91808E-4,.792E-5,0
BUGSAT-1 (TITA),2014-033E,2026-06-16T20:06:57.223584,15.15582513,.0027976,98.0435,260.3661,179.3031,180.8243,0,U,40014,999,65578,.21794E-3,.41E-4,0
SAUDISAT 4,2014-033G,2026-06-16T20:21:36.535392,14.79544450,.0046172,97.7582,313.9946,75.0624,285.5693,0,U,40016,999,64602,.78804E-4,.548E-5,0
APRIZESAT 9,2014-033J,2026-06-16T07:48:20.513952,14.74213513,.00656229,97.9059,300.5449,201.9666,157.8728,0,U,40018,999,64343,.94735912E-4,.594E-5,0
APRIZESAT 10,2014-033K,2026-06-16T20:30:32.375232,14.70882190,.0077387,97.9650,294.8213,274.9294,84.3081,0,U,40019,999,64220,.63108E-4,.35E-5,0
TECHDEMOSAT-1 (TDS-1),2014-037H,2026-06-16T13:31:18.859872,15.13285695,.0004448,98.3811,159.7144,268.5104,91.5615,0,U,40076,999,64813,.34011E-3,.5977E-4,0
TECHNOSAT,2017-042E,2026-06-16T09:14:16.473696,15.04956757,.00188971,97.4282,325.0727,96.7321,263.6058,0,U,42829,999,48658,.24602913E-3,.3441E-4,0
FLYING LAPTOP,2017-042G,2026-06-16T20:27:13.168800,15.01145830,.0019517,97.4683,323.3978,122.5784,237.7328,0,U,42831,999,48640,.28529E-3,.3612E-4,0
HAWK-A,2018-099H,2026-06-16T16:36:11.431872,15.24637919,.0033115,97.3911,219.9343,287.7398,72.0227,0,U,43765,999,41302,.21136E-3,.5223E-4,0
HAWK-B,2018-099AN,2026-06-16T17:06:21.345984,15.22821212,.0030525,97.3960,219.3710,306.7094,53.1339,0,U,43794,999,41296,.19547E-3,.4557E-4,0
HAWK-C,2018-099AT,2026-06-16T14:29:43.825344,15.28096428,.003878,97.3888,220.7569,287.9452,71.7562,0,U,43799,999,41382,.21715E-3,.6004E-4,0
SALSAT,2020-068K,2026-06-16T18:04:24.320064,15.29794360,.0008036,97.8846,170.7912,309.8779,50.1753,0,U,46495,999,31529,.22536E-3,.6424E-4,0
HAWK-2C,2021-006CT,2026-06-16T16:42:01.225728,15.34658689,.0006641,97.2274,212.0155,187.3675,172.7472,0,U,47502,999,29942,.16148E-3,.5348E-4,0
HAWK-2A,2021-006CW,2026-06-16T16:45:36.988128,15.34673383,.0006058,97.2315,212.6955,190.5285,169.5833,0,U,47505,999,29942,.16022E-3,.5308E-4,0
HAWK-2B,2021-006CZ,2026-06-16T16:39:13.686624,15.34761109,.000664,97.2186,211.0237,188.7968,171.3161,0,U,47508,999,29942,.18004E-3,.5992E-4,0
HAWK-3B,2021-059BE,2026-06-16T19:32:28.893120,15.69525953,.0003233,97.6651,4.4867,333.3550,26.7545,0,U,48931,999,27779,.30006E-3,.35276E-3,0
HAWK-3C,2021-059BX,2026-06-16T19:32:00.921120,15.69529236,.0003594,97.6774,10.1715,334.3227,25.7855,0,U,48948,999,27779,.29855E-3,.35103E-3,0
HAWK-3A,2021-059CG,2026-06-16T13:24:35.745984,15.69530198,.0003604,97.6715,7.0977,337.3917,22.7185,0,U,48957,999,27775,.30813E-3,.36241E-3,0
HAWK-5C,2022-057Y,2026-06-16T17:19:07.326048,15.51377602,.0005028,97.6598,327.3579,84.3643,275.8182,0,U,52754,999,22627,.26131E-3,.15288E-3,0
HAWK-5B,2022-057AA,2026-06-16T09:34:29.795808,15.51371165,.00057285,97.6606,325.3635,78.3980,281.7915,0,U,52756,999,22622,.27264113E-3,.15956E-3,0
HAWK-5A,2022-057AB,2026-06-16T17:18:36.224640,15.51377076,.0005616,97.6606,326.5382,80.2712,279.9173,0,U,52757,999,22627,.26671E-3,.15609E-3,0
